{"type": "FeatureCollection", "features": [ {"type": "Feature", "properties": {"norad_id": 37216, "name": "COSMO-SKYMED 4", "group": "resource", "lat": -24.082672458121785, "lon": -6.50180726007958, "alt_km": 628.5980612587764, "timestamp": "2025-12-21T20:41:07.642573+00:00", "meta": {"OBJECT_NAME": "COSMO-SKYMED 4", "OBJECT_ID": "2010-060A", "EPOCH": "2025-12-21T13:17:09.722400", "MEAN_MOTION": 14.82155946, "ECCENTRICITY": 0.00014198, "INCLINATION": 97.8799, "RA_OF_ASC_NODE": 176.7437, "ARG_OF_PERICENTER": 83.8752, "MEAN_ANOMALY": 276.2623, "EPHEMERIS_TYPE": 0, "CLASSIFICATION_TYPE": "U", "NORAD_CAT_ID": 37216, "ELEMENT_SET_NO": 999, "REV_AT_EPOCH": 81825, "BSTAR": 8.9960354e-05, "MEAN_MOTION_DOT": 6.64e-06, "MEAN_MOTION_DDOT": 0}, "tle": {"line1": "1 37216U 10060A   25355.55358475  .00000664  00000+0  89960-4 0  9999", "line2": "2 37216  97.8799 176.7437 0001419  83.8752 276.2623 14.82155946818250"}}, "geometry": {"type": "Point", "coordinates": [-6.50180726007958, -24.082672458121785]}}, {"type": "Feature", "properties": {"norad_id": 37387, "name": "RESOURCESAT-2", "group": "resource", "lat": -15.94814956135698, "lon": 61.90545212037178, "alt_km": 821.0923647985364, "timestamp": "2025-12-21T20:41:07.642583+00:00", "meta": {"OBJECT_NAME": "RESOURCESAT-2", "OBJECT_ID": "2011-015A", "EPOCH": "2025-12-21T14:00:15.750432", "MEAN_MOTION": 14.21600498, "ECCENTRICITY": 0.00060134, "INCLINATION": 98.7865, "RA_OF_ASC_NODE": 59.0952, "ARG_OF_PERICENTER": 18.7229, "MEAN_ANOMALY": 341.4168, "EPHEMERIS_TYPE": 0, "CLASSIFICATION_TYPE": "U", "NORAD_CAT_ID": 37387, "ELEMENT_SET_NO": 999, "REV_AT_EPOCH": 76094, "BSTAR": 6.7754345e-05, "MEAN_MOTION_DOT": 1.04e-06, "MEAN_MOTION_DDOT": 0}, "tle": {"line1": "1 37387U 11015A   25355.58351563  .00000104  00000+0  67754-4 0  9999", "line2": "2 37387  98.7865  59.0952 0006013  18.7229 341.4168 14.21600498760940"}}, "geometry": {"type": "Point", "coordinates": [61.90545212037178, -15.94814956135698]}}, {"type": "Feature", "properties": {"norad_id": 37781, "name": "HAIYANG-2A", "group": "resource", "lat": 67.75128207099834, "lon": -27.0582418824666, "alt_km": 960.174650780461, "timestamp": "2025-12-21T20:41:07.642592+00:00", "meta": {"OBJECT_NAME": "HAIYANG-2A", "OBJECT_ID": "2011-043A", "EPOCH": "2025-12-21T15:07:26.717376", "MEAN_MOTION": 13.7883561, "ECCENTRICITY": 0.0001626, "INCLINATION": 99.3371, "RA_OF_ASC_NODE": 356.4276, "ARG_OF_PERICENTER": 71.0154, "MEAN_ANOMALY": 289.1174, "EPHEMERIS_TYPE": 0, "CLASSIFICATION_TYPE": "U", "NORAD_CAT_ID": 37781, "ELEMENT_SET_NO": 999, "REV_AT_EPOCH": 72221, "BSTAR": -0.00010059818, "MEAN_MOTION_DOT": -1.46e-06, "MEAN_MOTION_DDOT": 0}, "tle": {"line1": "1 37781U 11043A   25355.63017034 -.00000146  00000+0 -10060-3 0  9991", "line2": "2 37781  99.3371 356.4276 0001626  71.0154 289.1174 13.78835610722214"}}, "geometry": {"type": "Point", "coordinates": [-27.0582418824666, 67.75128207099834]}}, {"type": "Feature", "properties": {"norad_id": 37791, "name": "RASAT", "group": "resource", "lat": -46.40693325319279, "lon": -103.58049848822083, "alt_km": 689.4553053707859, "timestamp": "2025-12-21T20:41:07.642601+00:00", "meta": {"OBJECT_NAME": "RASAT", "OBJECT_ID": "2011-044D", "EPOCH": "2025-12-21T13:40:33.903840", "MEAN_MOTION": 14.67920554, "ECCENTRICITY": 0.00215177, "INCLINATION": 98.0652, "RA_OF_ASC_NODE": 84.6971, "ARG_OF_PERICENTER": 38.4247, "MEAN_ANOMALY": 86.085, "EPHEMERIS_TYPE": 0, "CLASSIFICATION_TYPE": "U", "NORAD_CAT_ID": 37791, "ELEMENT_SET_NO": 999, "REV_AT_EPOCH": 76712, "BSTAR": 9.2659971e-05, "MEAN_MOTION_DOT": 4.83e-06, "MEAN_MOTION_DDOT": 0}, "tle": {"line1": "1 37791U 11044D   25355.56983685  .00000483  00000+0  92660-4 0  9998", "line2": "2 37791  98.0652  84.6971 0021517  38.4247  86.0850 14.67920554767121"}}, "geometry": {"type": "Point", "coordinates": [-103.58049848822083, -46.40693325319279]}}, {"type": "Feature", "properties": {"norad_id": 37841, "name": "SRMSAT", "group": "resource", "lat": 19.95473510447315, "lon": 141.24773448781949, "alt_km": 841.8813515899319, "timestamp": "2025-12-21T20:41:07.642610+00:00", "meta": {"OBJECT_NAME": "SRMSAT", "OBJECT_ID": "2011-058D", "EPOCH": "2025-12-21T11:55:34.039200", "MEAN_MOTION": 14.11514217, "ECCENTRICITY": 0.00119651, "INCLINATION": 19.9726, "RA_OF_ASC_NODE": 54.9508, "ARG_OF_PERICENTER": 49.5052, "MEAN_ANOMALY": 340.41, "EPHEMERIS_TYPE": 0, "CLASSIFICATION_TYPE": "U", "NORAD_CAT_ID": 37841, "ELEMENT_SET_NO": 999, "REV_AT_EPOCH": 73268, "BSTAR": 7.0305754e-05, "MEAN_MOTION_DOT": 3.94e-06, "MEAN_MOTION_DDOT": 0}, "tle": {"line1": "1 37841U 11058D   25355.49692175  .00000394  00000+0  70306-4 0  9996", "line2": "2 37841  19.9726  54.9508 0011965  49.5052 340.4100 14.11514217732682"}}, "geometry": {"type": "Point", "coordinates": [141.24773448781949, 19.95473510447315]}}, {"type": "Feature", "properties": {"norad_id": 38012, "name": "PLEIADES 1A", "group": "resource", "lat": 73.41493730993945, "lon": 39.60352388784365, "alt_km": 689.9272693583298, "timestamp": "2025-12-21T20:41:07.642619+00:00", "meta": {"OBJECT_NAME": "PLEIADES 1A", "OBJECT_ID": "2011-076F", "EPOCH": "2025-12-21T15:58:09.340896", "MEAN_MOTION": 14.58569029, "ECCENTRICITY": 0.00011737, "INCLINATION": 98.1819, "RA_OF_ASC_NODE": 68.2967, "ARG_OF_PERICENTER": 74.5388, "MEAN_ANOMALY": 49.792, "EPHEMERIS_TYPE": 0, "CLASSIFICATION_TYPE": "U", "NORAD_CAT_ID": 38012, "ELEMENT_SET_NO": 999, "REV_AT_EPOCH": 74611, "BSTAR": 8.3702993e-05, "MEAN_MOTION_DOT": 3.44e-06, "MEAN_MOTION_DDOT": 0}, "tle": {"line1": "1 38012U 11076F   25355.66538589  .00000344  00000+0  83703-4 0  9994", "line2": "2 38012  98.1819  68.2967 0001173  74.5388  49.7920 14.58569029746116"}}, "geometry": {"type": "Point", "coordinates": [39.60352388784365, 73.41493730993945]}}, {"type": "Feature", "properties": {"norad_id": 38038, "name": "ZIYUAN 1-02C (ZY 1-02C)", "group": "resource", "lat": 29.12368115572726, "lon": 56.96674796745863, "alt_km": 763.1207990455678, "timestamp": "2025-12-21T20:41:07.642628+00:00", "meta": {"OBJECT_NAME": "ZIYUAN 1-02C (ZY 1-02C)", "OBJECT_ID": "2011-079A", "EPOCH": "2025-12-21T14:29:59.247744", "MEAN_MOTION": 14.38022193, "ECCENTRICITY": 0.00074857, "INCLINATION": 98.4328, "RA_OF_ASC_NODE": 61.4547, "ARG_OF_PERICENTER": 115.0573, "MEAN_ANOMALY": 21.1018, "EPHEMERIS_TYPE": 0, "CLASSIFICATION_TYPE": "U", "NORAD_CAT_ID": 38038, "ELEMENT_SET_NO": 999, "REV_AT_EPOCH": 73368, "BSTAR": 0.00023632678, "MEAN_MOTION_DOT": 6.72e-06, "MEAN_MOTION_DDOT": 0}, "tle": {"line1": "1 38038U 11079A   25355.60415796  .00000672  00000+0  23633-3 0  9992", "line2": "2 38038  98.4328  61.4547 0007485 115.0573  21.1018 14.38022193733684"}}, "geometry": {"type": "Point", "coordinates": [56.96674796745863, 29.12368115572726]}}, {"type": "Feature", "properties": {"norad_id": 38338, "name": "ARIRANG-3 (KOMPSAT-3)", "group": "resource", "lat": 74.17804830697864, "lon": -80.62680251279784, "alt_km": 682.7057705812977, "timestamp": "2025-12-21T20:41:07.642637+00:00", "meta": {"OBJECT_NAME": "ARIRANG-3 (KOMPSAT-3)", "OBJECT_ID": "2012-025B", "EPOCH": "2025-12-21T13:45:54.959328", "MEAN_MOTION": 14.61723363, "ECCENTRICITY": 0.00048438, "INCLINATION": 98.3335, "RA_OF_ASC_NODE": 310.23, "ARG_OF_PERICENTER": 307.6938, "MEAN_ANOMALY": 52.3823, "EPHEMERIS_TYPE": 0, "CLASSIFICATION_TYPE": "U", "NORAD_CAT_ID": 38338, "ELEMENT_SET_NO": 999, "REV_AT_EPOCH": 72539, "BSTAR": 9.8955031e-05, "MEAN_MOTION_DOT": 4.45e-06, "MEAN_MOTION_DDOT": 0}, "tle": {"line1": "1 38338U 12025B   25355.57355277  .00000445  00000+0  98955-4 0  9998", "line2": "2 38338  98.3335 310.2300 0004843 307.6938  52.3823 14.61723363725397"}}, "geometry": {"type": "Point", "coordinates": [-80.62680251279784, 74.17804830697864]}}, {"type": "Feature", "properties": {"norad_id": 38709, "name": "EXACTVIEW-1 (ADS-1B)", "group": "resource", "lat": -51.598867526049276, "lon": 115.92954361865395, "alt_km": 808.7352464291998, "timestamp": "2025-12-21T20:41:07.642646+00:00", "meta": {"OBJECT_NAME": "EXACTVIEW-1 (ADS-1B)", "OBJECT_ID": "2012-039C", "EPOCH": "2025-12-21T07:26:55.885056", "MEAN_MOTION": 14.24911158, "ECCENTRICITY": 0.0010266, "INCLINATION": 98.9638, "RA_OF_ASC_NODE": 103.8803, "ARG_OF_PERICENTER": 328.7162, "MEAN_ANOMALY": 31.3404, "EPHEMERIS_TYPE": 0, "CLASSIFICATION_TYPE": "U", "NORAD_CAT_ID": 38709, "ELEMENT_SET_NO": 999, "REV_AT_EPOCH": 69737, "BSTAR": 6.9188e-05, "MEAN_MOTION_DOT": 1.15e-06, "MEAN_MOTION_DDOT": 0}, "tle": {"line1": "1 38709U 12039C   25355.31036904  .00000115  00000+0  69188-4 0  9990", "line2": "2 38709  98.9638 103.8803 0010266 328.7162  31.3404 14.24911158697372"}}, "geometry": {"type": "Point", "coordinates": [115.92954361865395, -51.598867526049276]}}, {"type": "Feature", "properties": {"norad_id": 38755, "name": "SPOT 6", "group": "resource", "lat": -0.9154716833374087, "lon": 60.609862700770975, "alt_km": 700.7898202752767, "timestamp": "2025-12-21T20:41:07.642655+00:00", "meta": {"OBJECT_NAME": "SPOT 6", "OBJECT_ID": "2012-047A", "EPOCH": "2025-12-21T12:27:26.637984", "MEAN_MOTION": 14.5854025, "ECCENTRICITY": 0.00013174, "INCLINATION": 98.1567, "RA_OF_ASC_NODE": 60.1421, "ARG_OF_PERICENTER": 77.6678, "MEAN_ANOMALY": 282.4669, "EPHEMERIS_TYPE": 0, "CLASSIFICATION_TYPE": "U", "NORAD_CAT_ID": 38755, "ELEMENT_SET_NO": 999, "REV_AT_EPOCH": 70715, "BSTAR": 0.00012822571, "MEAN_MOTION_DOT": 5.51e-06, "MEAN_MOTION_DDOT": 0}, "tle": {"line1": "1 38755U 12047A   25355.51905831  .00000551  00000+0  12823-3 0  9993", "line2": "2 38755  98.1567  60.1421 0001317  77.6678 282.4669 14.58540250707154"}}, "geometry": {"type": "Point", "coordinates": [60.609862700770975, -0.9154716833374087]}}]}